BEIDOU-3 M15 (C34)      
1 43648U 18078B   24261.25399494 -.00000050  00000+0  00000+0 0  9993
2 43648  54.6391 322.2475 0002474  18.7712 341.3121  1.86232142 40292
BEIDOU-3 G1 (C59)       
1 43683U 18085A   24261.90505060 -.00000285  00000+0  00000+0 0  9990
2 43683   2.4145 106.1812 0002594  26.8597 330.1493  1.00271753 21662
BEIDOU-3 M17 (C36)      
1 43706U 18093A   24260.33150653  .00000005  00000+0  00000+0 0  9994
2 43706  54.2077 203.9768 0009309 287.5190  72.3490  1.86228169 39623
BEIDOU-3 M18 (C37)      
1 43707U 18093B   24261.27001583  .00000008  00000+0  00000+0 0  9999
2 43707  54.2083 203.9367 0007732 316.3891  43.5197  1.86229675 39653
BEIDOU-3 IGSO-1 (C38)   
1 44204U 19023A   24260.81810914 -.00000197  00000+0  00000+0 0  9991
2 44204  57.7813  44.2682 0024123 205.0304 161.1056  1.00273514   811
BEIDOU-2 G8 (C01)       
1 44231U 19027A   24261.90591941 -.00000256  00000+0  00000+0 0  9998
2 44231   1.7014  74.3709 0003412 180.2185 213.3555  1.00267736 19695
BEIDOU-3 IGSO-2 (C39)   
1 44337U 19035A   24260.62257578 -.00000161  00000+0  00000+0 0  9992
2 44337  55.1823 164.4694 0034885 202.8106 331.9584  1.00268395 19296
BEIDOU-3 M24 (C46)      
1 44542U 19061A   24260.26589091  .00000006  00000+0  00000+0 0  9994
2 44542  54.4351 204.2833 0008453 353.0358   6.9219  1.86229303 33896
BEIDOU-3 M23 (C45)      
1 44543U 19061B   24262.14364035  .00000012  00000+0  00000+0 0  9990
2 44543  54.4334 204.1887 0005575 339.0225 112.4259  1.86229322 33927
BEIDOU-3 IGSO-3 (C40)   
1 44709U 19073A   24260.47854828 -.00000140  00000+0  00000+0 0  9998
2 44709  55.8952 287.7577 0041354 190.7072 169.2936  1.00274769 18052
BEIDOU-3 M22 (C44)      
1 44793U 19078A   24261.18504505 -.00000050  00000+0  00000+0 0  9999
2 44793  54.4911 322.1682 0004505  19.3302 340.7610  1.86232015 32766
BEIDOU-3 M21 (C43)      
1 44794U 19078B   24260.24070905 -.00000047  00000+0  00000+0 0  9994
2 44794  54.4654 322.1752 0002522   5.4952 354.5811  1.86232527 32756
BEIDOU-3 M19 (C41)      
1 44864U 19090A   24262.10256944  .00000030  00000+0  00000+0 0  9993
2 44864  56.0031  83.9474 0015322 280.9733  79.8310  1.86231485 32363
BEIDOU-3 M20 (C42)      
1 44865U 19090B   24261.43757907  .00000037  00000+0  00000+0 0  9991
2 44865  56.0042  84.0030 0012957 296.3819  68.2848  1.86231426 32344
BEIDOU-3 G2 (C60)       
1 45344U 20017A   24261.89306110 -.00000148  00000+0  00000+0 0  9995
2 45344   2.4364  32.9177 0003478 179.6662 186.2666  1.00270819 16874
BEIDOU-3 G3 (C61)       
1 45807U 20040A   24261.89914274 -.00000362  00000+0  00000+0 0  9999
2 45807   0.9474  51.5965 0002568 340.3297  39.6053  1.00269645 15689
BEIDOU-3 G4             
1 56564U 23066A   24261.88243760 -.00000124  00000+0  00000+0 0  9992
2 56564   1.8976 288.4758 0005975 232.5459 313.9029  1.00269897  5001
BEIDOU-3 M25            
1 58654U 23207A   24261.39747284  .00000034  00000+0  00000+0 0  9996
2 58654  55.1872  83.9226 0000211 196.0505 164.0129  1.86232119  4963
BEIDOU-3 M26            
1 58655U 23207B   24261.73356590  .00000031  00000+0  00000+0 0  9998
2 58655  55.1894  83.8966 0001671 218.0420 142.0081  1.86231713  4951
CUTE-1 (CO-55)          
1 27844U 03031E   24262.02208270  .00001148  00000+0  52417-3 0  9994
2 27844  98.6801 267.7782 0008687 230.6548 129.3861 14.23471193101024
CUBESAT XI-IV (CO-57)   
1 27848U 03031J   24261.00904891  .00001029  00000+0  47727-3 0  9993
2 27848  98.6831 266.9702 0008414 252.4760 107.5499 14.22880514100596
CUBESAT XI-V            
1 28895U 05043F   24261.93435750  .00006221  00000+0  10773-2 0  9995
2 28895  98.2146  38.0041 0016067  66.3937 293.8953 14.68582708  8066
CUTE-1.7+APD II (CO-65) 
1 32785U 08021C   24261.89526967  .00014448  00000+0  12072-2 0  9997
2 32785  97.7632 226.5938 0011169  25.7978 334.3799 14.98578008889421
AAUSAT-II               
1 32788U 08021F   24261.90613637  .00063338  00000+0  25429-2 0  9995
2 32788  97.5999 242.8545 0005702 152.9827 207.1707 15.24709550892513
CANX-2                  
1 32790U 08021H   24261.85838767  .00013312  00000+0  11638-2 0  9999
2 32790  97.7776 225.2209 0013158  37.7656 322.4486 14.96818857889225
SEEDS II (CO-66)        
1 32791U 08021J   24261.87343254  .00027310  00000+0  18212-2 0  9992
2 32791  97.6996 232.7420 0005425  28.7197 331.4328 15.07013682890543
SWISSCUBE               
1 35932U 09051B   24262.13797134  .00004213  00000+0  89398-3 0  9997
2 35932  98.4560 147.2733 0008229  40.0668 320.1137 14.59661517796158
BEESAT-1                
1 35933U 09051C   24262.16184691  .00003496  00000+0  74945-3 0  9993
2 35933  98.4489 148.0815 0006789  52.8192 307.3626 14.59315804796268
ITUPSAT1                
1 35935U 09051E   24262.17550454  .00003176  00000+0  69778-3 0  9993
2 35935  98.4582 147.8281 0009135  56.5667 303.6404 14.58228567795848
TISAT 1                 
1 36799U 10035E   24262.17056663  .00022150  00000+0  15422-2 0  9998
2 36799  98.0759 155.7426 0001457 293.9342  66.1731 15.05470922771232
AEROCUBE 4.5A           
1 38767U 12048K   24261.71037483  .00070554  00000+0  32453-2 0  9993
2 38767  64.6602  15.8758 0111946 347.0902  12.7358 15.14434239274452
AEROCUBE 4.5B           
1 38768U 12048L   24262.17098413  .00084120  00000+0  21726-2 0  9990
2 38768  64.6504 291.6688 0087077 334.7871  24.9021 15.34801065275646
STRAND-1                
1 39090U 13009E   24262.07749534  .00001176  00000+0  41696-3 0  9992
2 39090  98.3820  87.8246 0008495 342.7011  17.3885 14.36280429605598
BRITE-AUSTRIA           
1 39091U 13009F   24262.07268613  .00000775  00000+0  28150-3 0  9991
2 39091  98.3869  87.0953 0010080 349.1460  10.9507 14.35946802605606
NEE-01 PEGASO           
1 39151U 13018B   24261.84790100  .00009364  00000+0  10476-2 0  9997
2 39151  98.0452  19.9801 0015288  97.4896 262.8057 14.87047792615735
ESTCUBE 1               
1 39161U 13021C   24262.16716647  .00005720  00000+0  81258-3 0  9991
2 39161  97.8203 325.8059 0007479 290.5086  69.5322 14.77279814610857
POPACS 1                
1 39268U 13055D   24261.82501183  .00097971  89150-6  15155-2 0  9996
2 39268  80.9781  44.1958 0371055 152.9497 209.1615 15.02420286574394
POPACS 2                
1 39269U 13055E   24262.08402522  .00038934  00000+0  86264-3 0  9997
2 39269  81.0000 138.2578 0534995  38.8722 324.9699 14.61057800570364
POPACS 3                
1 39270U 13055F   24261.15262306  .00025660  00000+0  69232-3 0  9998
2 39270  81.0099 193.0430 0617043 192.0138 166.5757 14.39652420546182
ZACUBE-1 (TSHEPISOSAT)  
1 39417U 13066B   24261.86136432  .00012362  00000+0  12261-2 0  9995
2 39417  97.7426 215.8869 0047764 211.2956 148.5418 14.91054033585384
WNISAT-1                
1 39423U 13066H   24262.10426777  .00002901  00000+0  55326-3 0  9992
2 39423  97.6692  88.9226 0170122  77.5494 284.4682 14.55768218574160
TRITON-1                
1 39427U 13066M   24262.14577972  .00007430  00000+0  10146-2 0  9996
2 39427  97.8364 177.1831 0101915 141.6349 219.2167 14.75296782580100
DELFI-N3XT              
1 39428U 13066N   24261.74033179  .00041371  00000+0  49552-2 0  9993
2 39428  97.8329 177.7405 0098419 146.9011 213.8413 14.80497969579774
GOMX-1                  
1 39430U 13066Q   24262.17198725  .00006830  00000+0  11151-2 0  9998
2 39430  97.7167 130.9083 0136974 317.6118  41.4567 14.65108277576656
CUBEBUG-2 (LO-74)       
1 39440U 13066AA  24261.82199930  .00026816  00000+0  30173-2 0  9990
2 39440  97.8175 203.5919 0066695 332.9961  26.7789 14.85006784582077
NEE-02 KRYSAOR          
1 39441U 13066AB  24261.82656612  .00016021  00000+0  19684-2 0  9997
2 39441  97.8264 199.0861 0072765 356.3017   3.7649 14.81224428581644
FUNCUBE-1 (AO-73)       
1 39444U 13066AE  24261.82945186  .00017781  00000+0  16179-2 0  9997
2 39444  97.7278 219.2469 0045719 189.0579 170.9821 14.94441435583939
UWE-3                   
1 39446U 13066AG  24261.85721555  .00013154  00000+0  14025-2 0  9992
2 39446  97.7879 209.7338 0056148 274.8870  84.5937 14.87821969582474
BRITE-CA1 (TORONTO)     
1 40020U 14033L   24261.95533340  .00004913  00000+0  78450-3 0  9997
2 40020  97.8905  35.9079 0082860 155.2505 205.2712 14.70015485548603
DUCHIFAT-1              
1 40021U 14033M   24262.19354999  .00031767  00000+0  18714-2 0  9999
2 40021  98.0968 251.0880 0014593 136.3215 223.9171 15.11447045558157
NANOSATC-BR1            
1 40024U 14033Q   24261.90988173  .00025689  00000+0  17343-2 0  9990
2 40024  98.0717 238.0956 0005079 186.2752 173.8411 15.06576893557191
QB50P1                  
1 40025U 14033R   24261.89472561  .00018903  00000+0  14357-2 0  9991
2 40025  98.0540 225.8868 0010383 211.4760 148.5844 15.02188715556787
QB50P2                  
1 40032U 14033Y   24261.88089722  .00018050  00000+0  14259-2 0  9995
2 40032  98.0114 216.9278 0008940 165.9802 194.1671 15.00708962557083
PERSEUS-M2              
1 40037U 14033AD  24261.78402246  .00009889  00000+0  99623-3 0  9998
2 40037  97.9283 192.9486 0011060 246.7923 113.2130 14.91315699555626
PERSEUS-M1              
1 40039U 14033AF  24261.75485335  .00012230  00000+0  12357-2 0  9999
2 40039  97.9066 188.7054 0010757 245.4048 114.6049 14.91140769555478
POLYITAN-1              
1 40042U 14033AJ  24261.90137042  .00027046  00000+0  18547-2 0  9997
2 40042  98.0791 230.2284 0013105 165.3813 194.7794 15.05922996556773
TIGRISAT                
1 40043U 14033AK  24261.87118883  .00006494  00000+0  84461-3 0  9999
2 40043  97.7056  60.7042 0054335   2.6127 357.5358 14.79946426551463
AEROCUBE 6A             
1 40045U 14033AM  24261.95105219  .00015717  00000+0  17837-2 0  9999
2 40045  97.6759  71.9147 0048268 337.4949  22.4149 14.85549341551797
AEROCUBE 6B             
1 40046U 14033AN  24261.99841779  .00015524  00000+0  17246-2 0  9992
2 40046  97.6723  70.7509 0046893 332.0950  27.7752 14.86467374552002
